COSMOS 2251 DEB         
1 35901U 93036AUQ 26062.41284500  .00119078  00000+0  53748-2 0  9993
2 35901  74.0063 215.2278 0001792 345.5252  40.7842 15.20399634873478
COSMOS 2251 DEB         
1 35902U 93036AUR 26060.48561524  .00002240  00000+0  87332-3 0  9992
2 35902  73.9812  91.5985 0102783 191.4251 168.4565 14.27401531622533
COSMOS 2251 DEB         
1 35905U 93036AUU 26060.35276231  .00007622  00000+0  56313-3 0  9993
2 35905  74.0299  51.0279 0085187 111.0902 249.9419 15.00457327897615
COSMOS 2251 DEB         
1 35959U 93036AUZ 26061.96778675  .00000341  00000+0  13052-3 0  9993
2 35959  74.0332 165.1897 0023240 231.3372 128.5700 14.34199926860781
COSMOS 2251 DEB         
1 35961U 93036AVB 26060.68942373  .00004081  00000+0  21300-2 0  9991
2 35961  73.9258  65.2630 0190505 340.3294  19.0559 14.05894038637914
COSMOS 2251 DEB         
1 35979U 93036AVV 26060.04996527  .00004689  00000+0  67099-3 0  9990
2 35979  74.0083  85.0523 0059326 201.7003 189.0511 14.75697117897881
COSMOS 2251 DEB         
1 35980U 93036AVW 26059.44590890  .00006066  00000+0  12337-2 0  9992
2 35980  73.9149 333.2892 0050877  91.4604 269.2390 14.60470933626205
COSMOS 2251 DEB         
1 35982U 93036AVY 26062.78101181  .00004581  00000+0  86506-3 0  9996
2 35982  74.0581 191.7176 0065806 239.1696 120.2987 14.63342308873514
COSMOS 2251 DEB         
1 35987U 93036AWD 26060.69613465  .00003776  00000+0  11024-2 0  9999
2 35987  74.0001 179.6019 0049953 286.9216  72.6468 14.43695060622048
COSMOS 2251 DEB         
1 35989U 93036AWF 26061.51866094  .00000581  00000+0  20336-3 0  9999
2 35989  74.0375 137.1171 0022796 206.1701 153.8303 14.37210901883253
COSMOS 2251 DEB         
1 35993U 93036AWK 26054.05408999  .00004484  00000+0  81887-3 0  9995
2 35993  74.0143 193.3750 0030174 358.7265   1.3821 14.65956500615029
COSMOS 2251 DEB         
1 35996U 93036AWN 26051.12058272  .00009561  00000+0  53002-3 0  9997
2 35996  74.0150 320.0081 0083794  31.3164 329.2979 15.10863655733738
COSMOS 2251 DEB         
1 35997U 93036AWP 26061.26688529  .00003501  00000+0  87510-3 0  9997
2 35997  74.0416  37.6316 0013028  97.2204 263.0439 14.51838515720389
COSMOS 2251 DEB         
1 36000U 93036AWS 26059.31363935  .00024159  00000+0  22039-2 0  9993
2 36000  73.9908 290.6282 0027291  25.1174 335.1330 14.94728509613273
COSMOS 2251 DEB         
1 36005U 93036AWX 26061.07504905  .00000612  00000+0  17047-3 0  9990
2 36005  74.0269 305.5550 0059925  62.2650 298.4569 14.47479621887324
COSMOS 2251 DEB         
1 36045U 93036AXG 26060.87925888  .00011922  00000+0  18592-2 0  9999
2 36045  73.7607 262.8316 0047168 263.5578  96.0221 14.72215511 95520
