[{"OBJECT_NAME":"COSMOS 2251 DEB","OBJECT_ID":"1993-036AUQ","EPOCH":"2026-03-03T09:54:29.808000","MEAN_MOTION":15.20399634,"ECCENTRICITY":0.00017924,"INCLINATION":74.0063,"RA_OF_ASC_NODE":215.2278,"ARG_OF_PERICENTER":345.5252,"MEAN_ANOMALY":40.7842,"EPHEMERIS_TYPE":0,"CLASSIFICATION_TYPE":"U","NORAD_CAT_ID":35901,"ELEMENT_SET_NO":999,"REV_AT_EPOCH":87347,"BSTAR":0.0053747812,"MEAN_MOTION_DOT":0.00119078,"MEAN_MOTION_DDOT":0},{"OBJECT_NAME":"COSMOS 2251 DEB","OBJECT_ID":"1993-036AUR","EPOCH":"2026-03-01T11:39:17.156736","MEAN_MOTION":14.27401531,"ECCENTRICITY":0.01027835,"INCLINATION":73.9812,"RA_OF_ASC_NODE":91.5985,"ARG_OF_PERICENTER":191.4251,"MEAN_ANOMALY":168.4565,"EPHEMERIS_TYPE":0,"CLASSIFICATION_TYPE":"U","NORAD_CAT_ID":35902,"ELEMENT_SET_NO":999,"REV_AT_EPOCH":62253,"BSTAR":0.00087332247,"MEAN_MOTION_DOT":2.24e-5,"MEAN_MOTION_DDOT":0},{"OBJECT_NAME":"COSMOS 2251 DEB","OBJECT_ID":"1993-036AUU","EPOCH":"2026-03-01T08:27:58.663584","MEAN_MOTION":15.00457327,"ECCENTRICITY":0.00851875,"INCLINATION":74.0299,"RA_OF_ASC_NODE":51.0279,"ARG_OF_PERICENTER":111.0902,"MEAN_ANOMALY":249.9419,"EPHEMERIS_TYPE":0,"CLASSIFICATION_TYPE":"U","NORAD_CAT_ID":35905,"ELEMENT_SET_NO":999,"REV_AT_EPOCH":89761,"BSTAR":0.0005631254,"MEAN_MOTION_DOT":7.622e-5,"MEAN_MOTION_DDOT":0},{"OBJECT_NAME":"COSMOS 2251 DEB","OBJECT_ID":"1993-036AUZ","EPOCH":"2026-03-02T23:13:36.775200","MEAN_MOTION":14.34199926,"ECCENTRICITY":0.002324,"INCLINATION":74.0332,"RA_OF_ASC_NODE":165.1897,"ARG_OF_PERICENTER":231.3372,"MEAN_ANOMALY":128.57,"EPHEMERIS_TYPE":0,"CLASSIFICATION_TYPE":"U","NORAD_CAT_ID":35959,"ELEMENT_SET_NO":999,"REV_AT_EPOCH":86078,"BSTAR":0.00013052,"MEAN_MOTION_DOT":3.41e-6,"MEAN_MOTION_DDOT":0},{"OBJECT_NAME":"COSMOS 2251 DEB","OBJECT_ID":"1993-036AVB","EPOCH":"2026-03-01T16:32:46.210272","MEAN_MOTION":14.05894038,"ECCENTRICITY":0.01905052,"INCLINATION":73.9258,"RA_OF_ASC_NODE":65.263,"ARG_OF_PERICENTER":340.3294,"MEAN_ANOMALY":19.0559,"EPHEMERIS_TYPE":0,"CLASSIFICATION_TYPE":"U","NORAD_CAT_ID":35961,"ELEMENT_SET_NO":999,"REV_AT_EPOCH":63791,"BSTAR":0.0021300088,"MEAN_MOTION_DOT":4.081e-5,"MEAN_MOTION_DDOT":0},{"OBJECT_NAME":"COSMOS 2251 DEB","OBJECT_ID":"1993-036AVV","EPOCH":"2026-03-01T01:11:56.999328","MEAN_MOTION":14.75697117,"ECCENTRICITY":0.00593262,"INCLINATION":74.0083,"RA_OF_ASC_NODE":85.0523,"ARG_OF_PERICENTER":201.7003,"MEAN_ANOMALY":189.0511,"EPHEMERIS_TYPE":0,"CLASSIFICATION_TYPE":"U","NORAD_CAT_ID":35979,"ELEMENT_SET_NO":999,"REV_AT_EPOCH":89788,"BSTAR":0.00067098649,"MEAN_MOTION_DOT":4.689e-5,"MEAN_MOTION_DDOT":0},{"OBJECT_NAME":"COSMOS 2251 DEB","OBJECT_ID":"1993-036AVW","EPOCH":"2026-02-28T10:42:06.528960","MEAN_MOTION":14.60470933,"ECCENTRICITY":0.00508775,"INCLINATION":73.9149,"RA_OF_ASC_NODE":333.2892,"ARG_OF_PERICENTER":91.4604,"MEAN_ANOMALY":269.239,"EPHEMERIS_TYPE":0,"CLASSIFICATION_TYPE":"U","NORAD_CAT_ID":35980,"ELEMENT_SET_NO":999,"REV_AT_EPOCH":62620,"BSTAR":0.0012337369,"MEAN_MOTION_DOT":6.066e-5,"MEAN_MOTION_DDOT":0},{"OBJECT_NAME":"COSMOS 2251 DEB","OBJECT_ID":"1993-036AVY","EPOCH":"2026-03-03T18:44:39.420384","MEAN_MOTION":14.63342308,"ECCENTRICITY":0.0065806,"INCLINATION":74.0581,"RA_OF_ASC_NODE":191.7176,"ARG_OF_PERICENTER":239.1696,"MEAN_ANOMALY":120.2987,"EPHEMERIS_TYPE":0,"CLASSIFICATION_TYPE":"U","NORAD_CAT_ID":35982,"ELEMENT_SET_NO":999,"REV_AT_EPOCH":87351,"BSTAR":0.00086506,"MEAN_MOTION_DOT":4.581e-5,"MEAN_MOTION_DDOT":0},{"OBJECT_NAME":"COSMOS 2251 DEB","OBJECT_ID":"1993-036AWD","EPOCH":"2026-03-01T16:42:26.033760","MEAN_MOTION":14.4369506,"ECCENTRICITY":0.00499531,"INCLINATION":74.0001,"RA_OF_ASC_NODE":179.6019,"ARG_OF_PERICENTER":286.9216,"MEAN_ANOMALY":72.6468,"EPHEMERIS_TYPE":0,"CLASSIFICATION_TYPE":"U","NORAD_CAT_ID":35987,"ELEMENT_SET_NO":999,"REV_AT_EPOCH":62204,"BSTAR":0.0011024219,"MEAN_MOTION_DOT":3.776e-5,"MEAN_MOTION_DDOT":0},{"OBJECT_NAME":"COSMOS 2251 DEB","OBJECT_ID":"1993-036AWF","EPOCH":"2026-03-02T12:26:52.305216","MEAN_MOTION":14.37210901,"ECCENTRICITY":0.00227968,"INCLINATION":74.0375,"RA_OF_ASC_NODE":137.1171,"ARG_OF_PERICENTER":206.1701,"MEAN_ANOMALY":153.8303,"EPHEMERIS_TYPE":0,"CLASSIFICATION_TYPE":"U","NORAD_CAT_ID":35989,"ELEMENT_SET_NO":999,"REV_AT_EPOCH":88325,"BSTAR":0.00020336343,"MEAN_MOTION_DOT":5.81e-6,"MEAN_MOTION_DDOT":0},{"OBJECT_NAME":"COSMOS 2251 DEB","OBJECT_ID":"1993-036AWK","EPOCH":"2026-02-23T01:17:53.375136","MEAN_MOTION":14.659565,"ECCENTRICITY":0.00301741,"INCLINATION":74.0143,"RA_OF_ASC_NODE":193.375,"ARG_OF_PERICENTER":358.7265,"MEAN_ANOMALY":1.3821,"EPHEMERIS_TYPE":0,"CLASSIFICATION_TYPE":"U","NORAD_CAT_ID":35993,"ELEMENT_SET_NO":999,"REV_AT_EPOCH":61502,"BSTAR":0.0008188738,"MEAN_MOTION_DOT":4.484e-5,"MEAN_MOTION_DDOT":0},{"OBJECT_NAME":"COSMOS 2251 DEB","OBJECT_ID":"1993-036AWN","EPOCH":"2026-02-20T02:53:38.347008","MEAN_MOTION":15.10863655,"ECCENTRICITY":0.00837943,"INCLINATION":74.015,"RA_OF_ASC_NODE":320.0081,"ARG_OF_PERICENTER":31.3164,"MEAN_ANOMALY":329.2979,"EPHEMERIS_TYPE":0,"CLASSIFICATION_TYPE":"U","NORAD_CAT_ID":35996,"ELEMENT_SET_NO":999,"REV_AT_EPOCH":73373,"BSTAR":0.00053002099,"MEAN_MOTION_DOT":9.561e-5,"MEAN_MOTION_DDOT":0},{"OBJECT_NAME":"COSMOS 2251 DEB","OBJECT_ID":"1993-036AWP","EPOCH":"2026-03-02T06:24:18.889056","MEAN_MOTION":14.51838515,"ECCENTRICITY":0.00130283,"INCLINATION":74.0416,"RA_OF_ASC_NODE":37.6316,"ARG_OF_PERICENTER":97.2204,"MEAN_ANOMALY":263.0439,"EPHEMERIS_TYPE":0,"CLASSIFICATION_TYPE":"U","NORAD_CAT_ID":35997,"ELEMENT_SET_NO":999,"REV_AT_EPOCH":72038,"BSTAR":0.00087510237,"MEAN_MOTION_DOT":3.501e-5,"MEAN_MOTION_DDOT":0},{"OBJECT_NAME":"COSMOS 2251 DEB","OBJECT_ID":"1993-036AWS","EPOCH":"2026-02-28T07:31:38.439840","MEAN_MOTION":14.94728509,"ECCENTRICITY":0.00272918,"INCLINATION":73.9908,"RA_OF_ASC_NODE":290.6282,"ARG_OF_PERICENTER":25.1174,"MEAN_ANOMALY":335.133,"EPHEMERIS_TYPE":0,"CLASSIFICATION_TYPE":"U","NORAD_CAT_ID":36000,"ELEMENT_SET_NO":999,"REV_AT_EPOCH":61327,"BSTAR":0.0022038776,"MEAN_MOTION_DOT":0.00024159,"MEAN_MOTION_DDOT":0},{"OBJECT_NAME":"COSMOS 2251 DEB","OBJECT_ID":"1993-036AWX","EPOCH":"2026-03-02T01:48:04.237920","MEAN_MOTION":14.47479621,"ECCENTRICITY":0.00599258,"INCLINATION":74.0269,"RA_OF_ASC_NODE":305.555,"ARG_OF_PERICENTER":62.265,"MEAN_ANOMALY":298.4569,"EPHEMERIS_TYPE":0,"CLASSIFICATION_TYPE":"U","NORAD_CAT_ID":36005,"ELEMENT_SET_NO":999,"REV_AT_EPOCH":88732,"BSTAR":0.0001704669,"MEAN_MOTION_DOT":6.12e-6,"MEAN_MOTION_DDOT":0},{"OBJECT_NAME":"COSMOS 2251 DEB","OBJECT_ID":"1993-036AXG","EPOCH":"2026-03-01T21:06:07.967232","MEAN_MOTION":14.72215511,"ECCENTRICITY":0.0047168,"INCLINATION":73.7607,"RA_OF_ASC_NODE":262.8316,"ARG_OF_PERICENTER":263.5578,"MEAN_ANOMALY":96.0221,"EPHEMERIS_TYPE":0,"CLASSIFICATION_TYPE":"U","NORAD_CAT_ID":36045,"ELEMENT_SET_NO":999,"REV_AT_EPOCH":9552,"BSTAR":0.0018592,"MEAN_MOTION_DOT":0.00011922,"MEAN_MOTION_DDOT":0}]
